{"fetched_at":"2026-07-22T07:09:23.749Z","source":"https://celestrak.org/NORAD/elements/gp.php?GROUP=planet&FORMAT=JSON","constellation":"superdove","records":[{"OBJECT_NAME":"FLOCK 4BE-17","OBJECT_ID":"2024-149AA","EPOCH":"2026-07-21T04:45:11.177856","CLASSIFICATION_TYPE":"U","MEAN_MOTION":15.40690773,"ECCENTRICITY":0.0004662,"INCLINATION":97.3758,"RA_OF_ASC_NODE":285.8565,"ARG_OF_PERICENTER":131.6807,"MEAN_ANOMALY":228.4839,"EPHEMERIS_TYPE":0,"NORAD_CAT_ID":60492,"ELEMENT_SET_NO":999,"REV_AT_EPOCH":10749,"BSTAR":0.00031223477,"MEAN_MOTION_DOT":0.00012669,"MEAN_MOTION_DDOT":0},{"OBJECT_NAME":"FLOCK 4BE-22","OBJECT_ID":"2024-149AC","EPOCH":"2026-07-21T11:21:09.177696","CLASSIFICATION_TYPE":"U","MEAN_MOTION":15.42226262,"ECCENTRICITY":0.00050066,"INCLINATION":97.3717,"RA_OF_ASC_NODE":286.3814,"ARG_OF_PERICENTER":138.1684,"MEAN_ANOMALY":221.9946,"EPHEMERIS_TYPE":0,"NORAD_CAT_ID":60494,"ELEMENT_SET_NO":999,"REV_AT_EPOCH":10758,"BSTAR":0.00072588485,"MEAN_MOTION_DOT":0.00031185,"MEAN_MOTION_DDOT":0},{"OBJECT_NAME":"FLOCK 4BE-34","OBJECT_ID":"2024-149AD","EPOCH":"2026-07-21T03:59:37.314240","CLASSIFICATION_TYPE":"U","MEAN_MOTION":15.42068261,"ECCENTRICITY":0.00052758,"INCLINATION":97.3767,"RA_OF_ASC_NODE":286.9148,"ARG_OF_PERICENTER":145.4969,"MEAN_ANOMALY":214.6621,"EPHEMERIS_TYPE":0,"NORAD_CAT_ID":60495,"ELEMENT_SET_NO":999,"REV_AT_EPOCH":10756,"BSTAR":0.00029133974,"MEAN_MOTION_DOT":0.0001237,"MEAN_MOTION_DDOT":0},{"OBJECT_NAME":"FLOCK 4BE-32","OBJECT_ID":"2024-149AF","EPOCH":"2026-07-21T12:00:21.345120","CLASSIFICATION_TYPE":"U","MEAN_MOTION":15.43236366,"ECCENTRICITY":0.00053463,"INCLINATION":97.3704,"RA_OF_ASC_NODE":286.8239,"ARG_OF_PERICENTER":141.8048,"MEAN_ANOMALY":218.3579,"EPHEMERIS_TYPE":0,"NORAD_CAT_ID":60497,"ELEMENT_SET_NO":999,"REV_AT_EPOCH":10762,"BSTAR":0.00040049703,"MEAN_MOTION_DOT":0.00017729,"MEAN_MOTION_DDOT":0},{"OBJECT_NAME":"FLOCK 4BE-11","OBJECT_ID":"2024-149AK","EPOCH":"2026-07-21T11:26:56.372640","CLASSIFICATION_TYPE":"U","MEAN_MOTION":15.44024709,"ECCENTRICITY":0.00053664,"INCLINATION":97.3682,"RA_OF_ASC_NODE":287.0627,"ARG_OF_PERICENTER":141.1432,"MEAN_ANOMALY":219.0203,"EPHEMERIS_TYPE":0,"NORAD_CAT_ID":60501,"ELEMENT_SET_NO":999,"REV_AT_EPOCH":10764,"BSTAR":0.0003413966,"MEAN_MOTION_DOT":0.00015503,"MEAN_MOTION_DDOT":0},{"OBJECT_NAME":"FLOCK 4BE-24","OBJECT_ID":"2024-149AP","EPOCH":"2026-07-21T04:48:51.594624","CLASSIFICATION_TYPE":"U","MEAN_MOTION":15.44255936,"ECCENTRICITY":0.00054841,"INCLINATION":97.3698,"RA_OF_ASC_NODE":287.0547,"ARG_OF_PERICENTER":152.8176,"MEAN_ANOMALY":207.336,"EPHEMERIS_TYPE":0,"NORAD_CAT_ID":60505,"ELEMENT_SET_NO":999,"REV_AT_EPOCH":10761,"BSTAR":0.00035508516,"MEAN_MOTION_DOT":0.00016256,"MEAN_MOTION_DDOT":0},{"OBJECT_NAME":"FLOCK 4BE-29","OBJECT_ID":"2024-149AT","EPOCH":"2026-07-21T04:27:39.085920","CLASSIFICATION_TYPE":"U","MEAN_MOTION":15.45808063,"ECCENTRICITY":0.00041243,"INCLINATION":97.3794,"RA_OF_ASC_NODE":288.6041,"ARG_OF_PERICENTER":162.0588,"MEAN_ANOMALY":198.0808,"EPHEMERIS_TYPE":0,"NORAD_CAT_ID":60509,"ELEMENT_SET_NO":999,"REV_AT_EPOCH":10766,"BSTAR":0.0007310765,"MEAN_MOTION_DOT":0.0003546,"MEAN_MOTION_DDOT":0},{"OBJECT_NAME":"FLOCK 4BE-2","OBJECT_ID":"2024-149AV","EPOCH":"2026-07-21T05:42:14.790816","CLASSIFICATION_TYPE":"U","MEAN_MOTION":15.56436152,"ECCENTRICITY":0.00054511,"INCLINATION":97.3817,"RA_OF_ASC_NODE":290.6003,"ARG_OF_PERICENTER":157.2583,"MEAN_ANOMALY":202.8914,"EPHEMERIS_TYPE":0,"NORAD_CAT_ID":60511,"ELEMENT_SET_NO":999,"REV_AT_EPOCH":10779,"BSTAR":0.00081280085,"MEAN_MOTION_DOT":0.00057696,"MEAN_MOTION_DDOT":0},{"OBJECT_NAME":"FLOCK 4BE-13","OBJECT_ID":"2024-149AW","EPOCH":"2026-07-21T05:13:09.599808","CLASSIFICATION_TYPE":"U","MEAN_MOTION":15.42722739,"ECCENTRICITY":0.00054571,"INCLINATION":97.3708,"RA_OF_ASC_NODE":287.002,"ARG_OF_PERICENTER":138.5749,"MEAN_ANOMALY":221.5913,"EPHEMERIS_TYPE":0,"NORAD_CAT_ID":60512,"ELEMENT_SET_NO":999,"REV_AT_EPOCH":10761,"BSTAR":0.0002500379,"MEAN_MOTION_DOT":0.00010838,"MEAN_MOTION_DDOT":0},{"OBJECT_NAME":"FLOCK 4BE-27","OBJECT_ID":"2024-149AX","EPOCH":"2026-07-21T03:55:42.682944","CLASSIFICATION_TYPE":"U","MEAN_MOTION":15.34984568,"ECCENTRICITY":0.00045473,"INCLINATION":97.3813,"RA_OF_ASC_NODE":284.0426,"ARG_OF_PERICENTER":163.0635,"MEAN_ANOMALY":197.0761,"EPHEMERIS_TYPE":0,"NORAD_CAT_ID":60513,"ELEMENT_SET_NO":999,"REV_AT_EPOCH":10735,"BSTAR":0.00021457983,"MEAN_MOTION_DOT":0.00007203,"MEAN_MOTION_DDOT":0},{"OBJECT_NAME":"FLOCK 4BE-9","OBJECT_ID":"2024-149AY","EPOCH":"2026-07-21T11:58:50.343456","CLASSIFICATION_TYPE":"U","MEAN_MOTION":15.41759367,"ECCENTRICITY":0.00041363,"INCLINATION":97.3781,"RA_OF_ASC_NODE":287.1257,"ARG_OF_PERICENTER":155.3179,"MEAN_ANOMALY":204.8267,"EPHEMERIS_TYPE":0,"NORAD_CAT_ID":60514,"ELEMENT_SET_NO":999,"REV_AT_EPOCH":10760,"BSTAR":0.00040016829,"MEAN_MOTION_DOT":0.00016855,"MEAN_MOTION_DDOT":0},{"OBJECT_NAME":"FLOCK 4BE-6","OBJECT_ID":"2024-149BA","EPOCH":"2026-07-21T03:59:26.027808","CLASSIFICATION_TYPE":"U","MEAN_MOTION":15.40426856,"ECCENTRICITY":0.00047203,"INCLINATION":97.3774,"RA_OF_ASC_NODE":286.082,"ARG_OF_PERICENTER":155.7618,"MEAN_ANOMALY":204.3852,"EPHEMERIS_TYPE":0,"NORAD_CAT_ID":60516,"ELEMENT_SET_NO":999,"REV_AT_EPOCH":10750,"BSTAR":0.00029670585,"MEAN_MOTION_DOT":0.00011929,"MEAN_MOTION_DDOT":0},{"OBJECT_NAME":"FLOCK 4BE-14","OBJECT_ID":"2024-149BB","EPOCH":"2026-07-21T12:09:28.350432","CLASSIFICATION_TYPE":"U","MEAN_MOTION":15.41994135,"ECCENTRICITY":0.00058365,"INCLINATION":97.3681,"RA_OF_ASC_NODE":286.5949,"ARG_OF_PERICENTER":157.754,"MEAN_ANOMALY":202.3961,"EPHEMERIS_TYPE":0,"NORAD_CAT_ID":60517,"ELEMENT_SET_NO":999,"REV_AT_EPOCH":10761,"BSTAR":0.00039258567,"MEAN_MOTION_DOT":0.00016668,"MEAN_MOTION_DDOT":0},{"OBJECT_NAME":"FLOCK 4BE-1","OBJECT_ID":"2024-149BC","EPOCH":"2026-07-21T05:26:41.114400","CLASSIFICATION_TYPE":"U","MEAN_MOTION":15.43646626,"ECCENTRICITY":0.00054815,"INCLINATION":97.3765,"RA_OF_ASC_NODE":287.7136,"ARG_OF_PERICENTER":158.2388,"MEAN_ANOMALY":201.9094,"EPHEMERIS_TYPE":0,"NORAD_CAT_ID":60518,"ELEMENT_SET_NO":999,"REV_AT_EPOCH":10762,"BSTAR":0.00030979826,"MEAN_MOTION_DOT":0.00013878,"MEAN_MOTION_DDOT":0},{"OBJECT_NAME":"FLOCK 4BE-28","OBJECT_ID":"2024-149BD","EPOCH":"2026-07-21T04:27:54.286272","CLASSIFICATION_TYPE":"U","MEAN_MOTION":15.4662483,"ECCENTRICITY":0.00054531,"INCLINATION":97.3733,"RA_OF_ASC_NODE":288.5113,"ARG_OF_PERICENTER":158.1906,"MEAN_ANOMALY":201.9577,"EPHEMERIS_TYPE":0,"NORAD_CAT_ID":60519,"ELEMENT_SET_NO":999,"REV_AT_EPOCH":10769,"BSTAR":0.00070476341,"MEAN_MOTION_DOT":0.00035158,"MEAN_MOTION_DDOT":0},{"OBJECT_NAME":"FLOCK 4BE-5","OBJECT_ID":"2024-149CV","EPOCH":"2026-07-21T04:31:41.764512","CLASSIFICATION_TYPE":"U","MEAN_MOTION":15.4116393,"ECCENTRICITY":0.00044806,"INCLINATION":97.3832,"RA_OF_ASC_NODE":286.5364,"ARG_OF_PERICENTER":154.4879,"MEAN_ANOMALY":205.6589,"EPHEMERIS_TYPE":0,"NORAD_CAT_ID":60559,"ELEMENT_SET_NO":999,"REV_AT_EPOCH":10751,"BSTAR":0.00031353191,"MEAN_MOTION_DOT":0.00012923,"MEAN_MOTION_DDOT":0}]}
